{
  "metadata": {
    "name": "test"
  },
  "entities": [
    {
      "id": "t1",
      "components": {
        "physics": {
          "type": "orbital_2body",
          "source": "tle",
          "tle_line1": "1 24876U 97035A   26025.60780014 -.00000012  00000+0  00000+0 0  9994",
          "tle_line2": "2 24876  55.9152 104.1516 0097182  56.6348 304.3359  2.00563839209096"
        }
      }
    }
  ]
}